{"type":"FeatureCollection","metadata":{"source":"Natural Earth","scale":"1:110m","license":"Public domain","upstream":"https://github.com/nvkelso/natural-earth-vector/blob/master/geojson/ne_110m_populated_places.geojson","accuracy":"small-scale overview; not local survey"},"features":[{"type":"Feature","geometry":{"type":"Point","coordinates":[12.453387,41.903282]},"properties":{"name":"Vatican City","iso_a3":"VAT","pop_max":832}},{"type":"Feature","geometry":{"type":"Point","coordinates":[12.44177,43.936096]},"properties":{"name":"San Marino","iso_a3":"SMR","pop_max":29579}},{"type":"Feature","geometry":{"type":"Point","coordinates":[9.51667,47.133724]},"properties":{"name":"Vaduz","iso_a3":"LIE","pop_max":36281}},{"type":"Feature","geometry":{"type":"Point","coordinates":[31.199997,-26.466667]},"properties":{"name":"Lobamba","iso_a3":"SWZ","pop_max":9782}},{"type":"Feature","geometry":{"type":"Point","coordinates":[6.130003,49.61166]},"properties":{"name":"Luxembourg","iso_a3":"LUX","pop_max":107260}},{"type":"Feature","geometry":{"type":"Point","coordinates":[158.149974,6.916644]},"properties":{"name":"Palikir","iso_a3":"FSM","pop_max":4645}},{"type":"Feature","geometry":{"type":"Point","coordinates":[171.38,7.103004]},"properties":{"name":"Majuro","iso_a3":"MHL","pop_max":25400}},{"type":"Feature","geometry":{"type":"Point","coordinates":[179.216647,-8.516652]},"properties":{"name":"Funafuti","iso_a3":"TUV","pop_max":4749}},{"type":"Feature","geometry":{"type":"Point","coordinates":[134.626549,7.487396]},"properties":{"name":"Melekeok","iso_a3":"PLW","pop_max":7026}},{"type":"Feature","geometry":{"type":"Point","coordinates":[-9.652522,26.119167]},"properties":{"name":"Bir Lehlou","iso_a3":"SAH","pop_max":500}},{"type":"Feature","geometry":{"type":"Point","coordinates":[7.406913,43.739646]},"properties":{"name":"Monaco","iso_a3":"MCO","pop_max":36371}},{"type":"Feature","geometry":{"type":"Point","coordinates":[173.017571,1.338188]},"properties":{"name":"Tarawa","iso_a3":"KIR","pop_max":28802}},{"type":"Feature","geometry":{"type":"Point","coordinates":[43.240244,-11.704158]},"properties":{"name":"Moroni","iso_a3":"COM","pop_max":128698}},{"type":"Feature","geometry":{"type":"Point","coordinates":[1.526594,42.510753]},"properties":{"name":"Andorra","iso_a3":"AND","pop_max":53998}},{"type":"Feature","geometry":{"type":"Point","coordinates":[-61.517031,10.651997]},"properties":{"name":"Port-of-Spain","iso_a3":"TTO","pop_max":294934}},{"type":"Feature","geometry":{"type":"Point","coordinates":[30.058586,-1.951644]},"properties":{"name":"Kigali","iso_a3":"RWA","pop_max":860000}},{"type":"Feature","geometry":{"type":"Point","coordinates":[31.133335,-26.316651]},"properties":{"name":"Mbabane","iso_a3":"SWZ","pop_max":90138}},{"type":"Feature","geometry":{"type":"Point","coordinates":[31.580026,4.829975]},"properties":{"name":"Juba","iso_a3":"SSD","pop_max":111975}},{"type":"Feature","geometry":{"type":"Point","coordinates":[4.269961,52.080037]},"properties":{"name":"The Hague","iso_a3":"NLD","pop_max":1406000}},{"type":"Feature","geometry":{"type":"Point","coordinates":[14.514969,46.055288]},"properties":{"name":"Ljubljana","iso_a3":"SVN","pop_max":314807}},{"type":"Feature","geometry":{"type":"Point","coordinates":[17.116981,48.150018]},"properties":{"name":"Bratislava","iso_a3":"SVK","pop_max":423737}},{"type":"Feature","geometry":{"type":"Point","coordinates":[51.532968,25.286556]},"properties":{"name":"Doha","iso_a3":"QAT","pop_max":1450000}},{"type":"Feature","geometry":{"type":"Point","coordinates":[19.266307,42.465972]},"properties":{"name":"Podgorica","iso_a3":"MNE","pop_max":145850}},{"type":"Feature","geometry":{"type":"Point","coordinates":[79.949993,6.900004]},"properties":{"name":"Sri Jayawardenepura Kotte","iso_a3":"LKA","pop_max":115826}},{"type":"Feature","geometry":{"type":"Point","coordinates":[120.569943,16.429991]},"properties":{"name":"Baguio","iso_a3":"PHL","pop_max":447824}},{"type":"Feature","geometry":{"type":"Point","coordinates":[35.750004,-6.183306]},"properties":{"name":"Dodoma","iso_a3":"TZA","pop_max":218269}},{"type":"Feature","geometry":{"type":"Point","coordinates":[7.466976,46.916683]},"properties":{"name":"Bern","iso_a3":"CHE","pop_max":275329}},{"type":"Feature","geometry":{"type":"Point","coordinates":[-13.200006,27.149982]},"properties":{"name":"Laayoune","iso_a3":"MAR","pop_max":188084}},{"type":"Feature","geometry":{"type":"Point","coordinates":[21.165984,42.66671]},"properties":{"name":"Pristina","iso_a3":"KOS","pop_max":465186}},{"type":"Feature","geometry":{"type":"Point","coordinates":[-61.387013,15.301016]},"properties":{"name":"Roseau","iso_a3":"DMA","pop_max":23336}},{"type":"Feature","geometry":{"type":"Point","coordinates":[43.148002,11.595014]},"properties":{"name":"Djibouti","iso_a3":"DJI","pop_max":923000}},{"type":"Feature","geometry":{"type":"Point","coordinates":[101.695037,2.932515]},"properties":{"name":"Putrajaya","iso_a3":"MYS","pop_max":67964}},{"type":"Feature","geometry":{"type":"Point","coordinates":[135.748052,35.031938]},"properties":{"name":"Kyoto","iso_a3":"JPN","pop_max":1805000}},{"type":"Feature","geometry":{"type":"Point","coordinates":[-16.591701,13.453876]},"properties":{"name":"Banjul","iso_a3":"GMB","pop_max":43094}},{"type":"Feature","geometry":{"type":"Point","coordinates":[21.433461,42.000006]},"properties":{"name":"Skopje","iso_a3":"MKD","pop_max":494087}},{"type":"Feature","geometry":{"type":"Point","coordinates":[-59.616527,13.102003]},"properties":{"name":"Bridgetown","iso_a3":"BRB","pop_max":191152}},{"type":"Feature","geometry":{"type":"Point","coordinates":[2.616626,6.483311]},"properties":{"name":"Porto-Novo","iso_a3":"BEN","pop_max":300000}},{"type":"Feature","geometry":{"type":"Point","coordinates":[29.360006,-3.376087]},"properties":{"name":"Bujumbura","iso_a3":"BDI","pop_max":331700}},{"type":"Feature","geometry":{"type":"Point","coordinates":[-61.220236,13.155756]},"properties":{"name":"Kingstown","iso_a3":"VCT","pop_max":49485}},{"type":"Feature","geometry":{"type":"Point","coordinates":[-60.992875,14.007875]},"properties":{"name":"Castries","iso_a3":"LCA","pop_max":37963}},{"type":"Feature","geometry":{"type":"Point","coordinates":[-62.717009,17.302031]},"properties":{"name":"Basseterre","iso_a3":"KNA","pop_max":21887}},{"type":"Feature","geometry":{"type":"Point","coordinates":[57.499994,-20.166639]},"properties":{"name":"Port Louis","iso_a3":"MUS","pop_max":595491}},{"type":"Feature","geometry":{"type":"Point","coordinates":[-61.741643,12.052633]},"properties":{"name":"Saint George's","iso_a3":"GRD","pop_max":33734}},{"type":"Feature","geometry":{"type":"Point","coordinates":[50.583052,26.236136]},"properties":{"name":"Manama","iso_a3":"BHR","pop_max":563920}},{"type":"Feature","geometry":{"type":"Point","coordinates":[-61.850034,17.118036]},"properties":{"name":"Saint John's","iso_a3":"ATG","pop_max":35499}},{"type":"Feature","geometry":{"type":"Point","coordinates":[-56.186823,-34.905376]},"properties":{"name":"Montevideo","iso_a3":"URY","pop_max":1513000}},{"type":"Feature","geometry":{"type":"Point","coordinates":[1.220811,6.133883]},"properties":{"name":"Lomé","iso_a3":"TGO","pop_max":1452000}},{"type":"Feature","geometry":{"type":"Point","coordinates":[10.179678,36.802778]},"properties":{"name":"Tunis","iso_a3":"TUN","pop_max":2412500}},{"type":"Feature","geometry":{"type":"Point","coordinates":[54.366593,24.466684]},"properties":{"name":"Abu Dhabi","iso_a3":"ARE","pop_max":603492}},{"type":"Feature","geometry":{"type":"Point","coordinates":[58.383299,37.949995]},"properties":{"name":"Ashgabat","iso_a3":"TKM","pop_max":727700}},{"type":"Feature","geometry":{"type":"Point","coordinates":[28.281382,-15.414698]},"properties":{"name":"Lusaka","iso_a3":"ZMB","pop_max":1328000}},{"type":"Feature","geometry":{"type":"Point","coordinates":[31.042764,-17.815844]},"properties":{"name":"Harare","iso_a3":"ZWE","pop_max":1572000}},{"type":"Feature","geometry":{"type":"Point","coordinates":[125.579456,-8.559388]},"properties":{"name":"Dili","iso_a3":"TLS","pop_max":234331}},{"type":"Feature","geometry":{"type":"Point","coordinates":[168.316641,-17.73335]},"properties":{"name":"Port Vila","iso_a3":"VUT","pop_max":44040}},{"type":"Feature","geometry":{"type":"Point","coordinates":[-87.219475,14.103991]},"properties":{"name":"Tegucigalpa","iso_a3":"HND","pop_max":946000}},{"type":"Feature","geometry":{"type":"Point","coordinates":[-58.167029,6.801974]},"properties":{"name":"Georgetown","iso_a3":"GUY","pop_max":264350}},{"type":"Feature","geometry":{"type":"Point","coordinates":[-21.936546,64.143459]},"properties":{"name":"Reykjavík","iso_a3":"ISL","pop_max":166212}},{"type":"Feature","geometry":{"type":"Point","coordinates":[-72.33798,18.54297]},"properties":{"name":"Port-au-Prince","iso_a3":"HTI","pop_max":1998000}},{"type":"Feature","geometry":{"type":"Point","coordinates":[32.581378,0.318605]},"properties":{"name":"Kampala","iso_a3":"UGA","pop_max":1420000}},{"type":"Feature","geometry":{"type":"Point","coordinates":[-55.167031,5.83503]},"properties":{"name":"Paramaribo","iso_a3":"SUR","pop_max":254169}},{"type":"Feature","geometry":{"type":"Point","coordinates":[2.11471,13.518652]},"properties":{"name":"Niamey","iso_a3":"NER","pop_max":915000}},{"type":"Feature","geometry":{"type":"Point","coordinates":[68.773879,38.560035]},"properties":{"name":"Dushanbe","iso_a3":"TJK","pop_max":1086244}},{"type":"Feature","geometry":{"type":"Point","coordinates":[-57.625834,-25.290671]},"properties":{"name":"Asunción","iso_a3":"PRY","pop_max":1870000}},{"type":"Feature","geometry":{"type":"Point","coordinates":[-86.270437,12.154962]},"properties":{"name":"Managua","iso_a3":"NIC","pop_max":920000}},{"type":"Feature","geometry":{"type":"Point","coordinates":[-13.236162,8.471957]},"properties":{"name":"Freetown","iso_a3":"SLE","pop_max":827000}},{"type":"Feature","geometry":{"type":"Point","coordinates":[73.08063,33.689368]},"properties":{"name":"Islamabad","iso_a3":"PAK","pop_max":780000}},{"type":"Feature","geometry":{"type":"Point","coordinates":[85.314696,27.718638]},"properties":{"name":"Kathmandu","iso_a3":"NPL","pop_max":895000}},{"type":"Feature","geometry":{"type":"Point","coordinates":[26.229913,-29.119994]},"properties":{"name":"Bloemfontein","iso_a3":"ZAF","pop_max":463064}},{"type":"Feature","geometry":{"type":"Point","coordinates":[28.227483,-25.704975]},"properties":{"name":"Pretoria","iso_a3":"ZAF","pop_max":1338000}},{"type":"Feature","geometry":{"type":"Point","coordinates":[147.192504,-9.464708]},"properties":{"name":"Port Moresby","iso_a3":"PNG","pop_max":283733}},{"type":"Feature","geometry":{"type":"Point","coordinates":[159.949766,-9.437994]},"properties":{"name":"Honiara","iso_a3":"SLB","pop_max":76328}},{"type":"Feature","geometry":{"type":"Point","coordinates":[-79.534983,8.969963]},"properties":{"name":"Panama City","iso_a3":"PAN","pop_max":1281000}},{"type":"Feature","geometry":{"type":"Point","coordinates":[-6.836408,34.025307]},"properties":{"name":"Rabat","iso_a3":"MAR","pop_max":1705000}},{"type":"Feature","geometry":{"type":"Point","coordinates":[28.857711,47.005024]},"properties":{"name":"Chișinău","iso_a3":"MDA","pop_max":688134}},{"type":"Feature","geometry":{"type":"Point","coordinates":[32.587217,-25.953332]},"properties":{"name":"Maputo","iso_a3":"MOZ","pop_max":1446000}},{"type":"Feature","geometry":{"type":"Point","coordinates":[45.364732,2.068627]},"properties":{"name":"Mogadishu","iso_a3":"SOM","pop_max":1100000}},{"type":"Feature","geometry":{"type":"Point","coordinates":[58.378311,23.585179]},"properties":{"name":"Muscat","iso_a3":"OMN","pop_max":734697}},{"type":"Feature","geometry":{"type":"Point","coordinates":[79.857751,6.931966]},"properties":{"name":"Colombo","iso_a3":"LKA","pop_max":217000}},{"type":"Feature","geometry":{"type":"Point","coordinates":[106.91467,47.918619]},"properties":{"name":"Ulaanbaatar","iso_a3":"MNG","pop_max":885000}},{"type":"Feature","geometry":{"type":"Point","coordinates":[17.083546,-22.570006]},"properties":{"name":"Windhoek","iso_a3":"NAM","pop_max":268132}},{"type":"Feature","geometry":{"type":"Point","coordinates":[7.489505,9.05462]},"properties":{"name":"Abuja","iso_a3":"NGA","pop_max":1576000}},{"type":"Feature","geometry":{"type":"Point","coordinates":[-15.598361,11.865024]},"properties":{"name":"Bissau","iso_a3":"GNB","pop_max":403339}},{"type":"Feature","geometry":{"type":"Point","coordinates":[35.931354,31.951971]},"properties":{"name":"Amman","iso_a3":"JOR","pop_max":1060000}},{"type":"Feature","geometry":{"type":"Point","coordinates":[25.316635,54.683366]},"properties":{"name":"Vilnius","iso_a3":"LTU","pop_max":542366}},{"type":"Feature","geometry":{"type":"Point","coordinates":[24.099965,56.950024]},"properties":{"name":"Riga","iso_a3":"LVA","pop_max":742572}},{"type":"Feature","geometry":{"type":"Point","coordinates":[74.583258,42.875025]},"properties":{"name":"Bishkek","iso_a3":"KGZ","pop_max":837000}},{"type":"Feature","geometry":{"type":"Point","coordinates":[27.483273,-29.316674]},"properties":{"name":"Maseru","iso_a3":"LSO","pop_max":361324}},{"type":"Feature","geometry":{"type":"Point","coordinates":[47.514678,-18.914691]},"properties":{"name":"Antananarivo","iso_a3":"MDG","pop_max":1697000}},{"type":"Feature","geometry":{"type":"Point","coordinates":[-78.501997,-0.213042]},"properties":{"name":"Quito","iso_a3":"ECU","pop_max":1701000}},{"type":"Feature","geometry":{"type":"Point","coordinates":[-84.078814,9.930371]},"properties":{"name":"San José","iso_a3":"CRI","pop_max":1284000}},{"type":"Feature","geometry":{"type":"Point","coordinates":[-89.215576,13.70328]},"properties":{"name":"San Salvador","iso_a3":"SLV","pop_max":1433000}},{"type":"Feature","geometry":{"type":"Point","coordinates":[-76.767434,17.977077]},"properties":{"name":"Kingston","iso_a3":"JAM","pop_max":937700}},{"type":"Feature","geometry":{"type":"Point","coordinates":[15.047202,12.115042]},"properties":{"name":"N'Djamena","iso_a3":"TCD","pop_max":989000}},{"type":"Feature","geometry":{"type":"Point","coordinates":[8.783278,3.750015]},"properties":{"name":"Malabo","iso_a3":"GNQ","pop_max":155963}},{"type":"Feature","geometry":{"type":"Point","coordinates":[38.933324,15.333339]},"properties":{"name":"Asmara","iso_a3":"ERI","pop_max":620802}},{"type":"Feature","geometry":{"type":"Point","coordinates":[15.999995,45.800007]},"properties":{"name":"Zagreb","iso_a3":"HRV","pop_max":722526}},{"type":"Feature","geometry":{"type":"Point","coordinates":[24.728041,59.433877]},"properties":{"name":"Tallinn","iso_a3":"EST","pop_max":394024}},{"type":"Feature","geometry":{"type":"Point","coordinates":[33.783302,-13.983295]},"properties":{"name":"Lilongwe","iso_a3":"MWI","pop_max":646750}},{"type":"Feature","geometry":{"type":"Point","coordinates":[-90.528911,14.623081]},"properties":{"name":"Guatemala City","iso_a3":"GTM","pop_max":1024000}},{"type":"Feature","geometry":{"type":"Point","coordinates":[9.457965,0.385389]},"properties":{"name":"Libreville","iso_a3":"GAB","pop_max":578156}},{"type":"Feature","geometry":{"type":"Point","coordinates":[178.441707,-18.133016]},"properties":{"name":"Suva","iso_a3":"FJI","pop_max":175399}},{"type":"Feature","geometry":{"type":"Point","coordinates":[-71.617026,-33.047739]},"properties":{"name":"Valparaíso","iso_a3":"CHL","pop_max":854000}},{"type":"Feature","geometry":{"type":"Point","coordinates":[-15.97534,18.086427]},"properties":{"name":"Nouakchott","iso_a3":"MRT","pop_max":742144}},{"type":"Feature","geometry":{"type":"Point","coordinates":[-8.001985,12.65196]},"properties":{"name":"Bamako","iso_a3":"MLI","pop_max":1494000}},{"type":"Feature","geometry":{"type":"Point","coordinates":[35.507762,33.873921]},"properties":{"name":"Beirut","iso_a3":"LBN","pop_max":1846000}},{"type":"Feature","geometry":{"type":"Point","coordinates":[44.78885,41.726956]},"properties":{"name":"Tbilisi","iso_a3":"GEO","pop_max":1100000}},{"type":"Feature","geometry":{"type":"Point","coordinates":[71.427774,51.181125]},"properties":{"name":"Nur-Sultan","iso_a3":"KAZ","pop_max":345604}},{"type":"Feature","geometry":{"type":"Point","coordinates":[102.59998,17.966693]},"properties":{"name":"Vientiane","iso_a3":"LAO","pop_max":754000}},{"type":"Feature","geometry":{"type":"Point","coordinates":[15.282744,-4.25724]},"properties":{"name":"Brazzaville","iso_a3":"COG","pop_max":1355000}},{"type":"Feature","geometry":{"type":"Point","coordinates":[-13.682181,9.533469]},"properties":{"name":"Conakry","iso_a3":"GIN","pop_max":1494000}},{"type":"Feature","geometry":{"type":"Point","coordinates":[-5.275503,6.818381]},"properties":{"name":"Yamoussoukro","iso_a3":"CIV","pop_max":206499}},{"type":"Feature","geometry":{"type":"Point","coordinates":[-75.701961,45.418643]},"properties":{"name":"Ottawa","iso_a3":"CAN","pop_max":1145000}},{"type":"Feature","geometry":{"type":"Point","coordinates":[20.466045,44.820591]},"properties":{"name":"Belgrade","iso_a3":"SRB","pop_max":1099000}},{"type":"Feature","geometry":{"type":"Point","coordinates":[114.933284,4.883331]},"properties":{"name":"Bandar Seri Begawan","iso_a3":"BRN","pop_max":296500}},{"type":"Feature","geometry":{"type":"Point","coordinates":[-65.259516,-19.040971]},"properties":{"name":"Sucre","iso_a3":"BOL","pop_max":224838}},{"type":"Feature","geometry":{"type":"Point","coordinates":[-88.767073,17.252033]},"properties":{"name":"Belmopan","iso_a3":"BLZ","pop_max":15220}},{"type":"Feature","geometry":{"type":"Point","coordinates":[18.558288,4.366644]},"properties":{"name":"Bangui","iso_a3":"CAF","pop_max":831925}},{"type":"Feature","geometry":{"type":"Point","coordinates":[11.514705,3.868647]},"properties":{"name":"Yaoundé","iso_a3":"CMR","pop_max":1611000}},{"type":"Feature","geometry":{"type":"Point","coordinates":[19.818883,41.327541]},"properties":{"name":"Tirana","iso_a3":"ALB","pop_max":895350}},{"type":"Feature","geometry":{"type":"Point","coordinates":[44.511606,40.183097]},"properties":{"name":"Yerevan","iso_a3":"ARM","pop_max":1102000}},{"type":"Feature","geometry":{"type":"Point","coordinates":[49.860271,40.397218]},"properties":{"name":"Baku","iso_a3":"AZE","pop_max":2122300}},{"type":"Feature","geometry":{"type":"Point","coordinates":[104.914689,11.551976]},"properties":{"name":"Phnom Penh","iso_a3":"KHM","pop_max":1466000}},{"type":"Feature","geometry":{"type":"Point","coordinates":[-68.151931,-16.496028]},"properties":{"name":"La Paz","iso_a3":"BOL","pop_max":1590000}},{"type":"Feature","geometry":{"type":"Point","coordinates":[2.404355,6.36298]},"properties":{"name":"Cotonou","iso_a3":"BEN","pop_max":762000}},{"type":"Feature","geometry":{"type":"Point","coordinates":[23.314708,42.685295]},"properties":{"name":"Sofia","iso_a3":"BGR","pop_max":1185000}},{"type":"Feature","geometry":{"type":"Point","coordinates":[27.564681,53.901923]},"properties":{"name":"Minsk","iso_a3":"BLR","pop_max":1805000}},{"type":"Feature","geometry":{"type":"Point","coordinates":[89.639014,27.472986]},"properties":{"name":"Thimphu","iso_a3":"BTN","pop_max":98676}},{"type":"Feature","geometry":{"type":"Point","coordinates":[25.911948,-24.646314]},"properties":{"name":"Gaborone","iso_a3":"BWA","pop_max":208411}},{"type":"Feature","geometry":{"type":"Point","coordinates":[149.129026,-35.283029]},"properties":{"name":"Canberra","iso_a3":"AUS","pop_max":327700}},{"type":"Feature","geometry":{"type":"Point","coordinates":[-1.52667,12.372262]},"properties":{"name":"Ouagadougou","iso_a3":"BFA","pop_max":1149000}},{"type":"Feature","geometry":{"type":"Point","coordinates":[18.383002,43.850022]},"properties":{"name":"Sarajevo","iso_a3":"BIH","pop_max":696731}},{"type":"Feature","geometry":{"type":"Point","coordinates":[96.116673,19.768503]},"properties":{"name":"Naypyidaw","iso_a3":"MMR","pop_max":930000}},{"type":"Feature","geometry":{"type":"Point","coordinates":[-175.220564,-21.138512]},"properties":{"name":"Nuku'alofa","iso_a3":"TON","pop_max":42620}},{"type":"Feature","geometry":{"type":"Point","coordinates":[44.06531,9.560022]},"properties":{"name":"Hargeisa","iso_a3":"SOL","pop_max":477876}},{"type":"Feature","geometry":{"type":"Point","coordinates":[55.44999,-4.616632]},"properties":{"name":"Victoria","iso_a3":"SYC","pop_max":33576}},{"type":"Feature","geometry":{"type":"Point","coordinates":[6.72965,0.337466]},"properties":{"name":"São Tomé","iso_a3":"STP","pop_max":88219}},{"type":"Feature","geometry":{"type":"Point","coordinates":[-171.768599,-13.835715]},"properties":{"name":"Apia","iso_a3":"WSM","pop_max":61916}},{"type":"Feature","geometry":{"type":"Point","coordinates":[14.514711,35.899732]},"properties":{"name":"Valletta","iso_a3":"MLT","pop_max":368250}},{"type":"Feature","geometry":{"type":"Point","coordinates":[73.508901,4.172037]},"properties":{"name":"Malé","iso_a3":"MDV","pop_max":112927}},{"type":"Feature","geometry":{"type":"Point","coordinates":[35.206626,31.778408]},"properties":{"name":"Jerusalem","iso_a3":"ISR","pop_max":1029300}},{"type":"Feature","geometry":{"type":"Point","coordinates":[-23.516689,14.916698]},"properties":{"name":"Praia","iso_a3":"CPV","pop_max":113364}},{"type":"Feature","geometry":{"type":"Point","coordinates":[-77.350044,25.08339]},"properties":{"name":"Nassau","iso_a3":"BHS","pop_max":227940}},{"type":"Feature","geometry":{"type":"Point","coordinates":[33.366635,35.166677]},"properties":{"name":"Nicosia","iso_a3":"CYP","pop_max":224300}},{"type":"Feature","geometry":{"type":"Point","coordinates":[174.777201,-41.292068]},"properties":{"name":"Wellington","iso_a3":"NZL","pop_max":393400}},{"type":"Feature","geometry":{"type":"Point","coordinates":[105.848068,21.035273]},"properties":{"name":"Hanoi","iso_a3":"VNM","pop_max":4378000}},{"type":"Feature","geometry":{"type":"Point","coordinates":[32.862446,39.929184]},"properties":{"name":"Ankara","iso_a3":"TUR","pop_max":3716000}},{"type":"Feature","geometry":{"type":"Point","coordinates":[19.081375,47.501952]},"properties":{"name":"Budapest","iso_a3":"HUN","pop_max":1679000}},{"type":"Feature","geometry":{"type":"Point","coordinates":[44.204648,15.356679]},"properties":{"name":"Sanaa","iso_a3":"YEM","pop_max":2008000}},{"type":"Feature","geometry":{"type":"Point","coordinates":[26.098001,44.435318]},"properties":{"name":"Bucharest","iso_a3":"ROU","pop_max":1942000}},{"type":"Feature","geometry":{"type":"Point","coordinates":[36.29805,33.50198]},"properties":{"name":"Damascus","iso_a3":"SYR","pop_max":2466000}},{"type":"Feature","geometry":{"type":"Point","coordinates":[-9.146812,38.724669]},"properties":{"name":"Lisbon","iso_a3":"PRT","pop_max":2812000}},{"type":"Feature","geometry":{"type":"Point","coordinates":[32.532233,15.590024]},"properties":{"name":"Khartoum","iso_a3":"SDN","pop_max":4754000}},{"type":"Feature","geometry":{"type":"Point","coordinates":[10.748033,59.918636]},"properties":{"name":"Oslo","iso_a3":"NOR","pop_max":835000}},{"type":"Feature","geometry":{"type":"Point","coordinates":[21.005347,52.230872]},"properties":{"name":"Warsaw","iso_a3":"POL","pop_max":1707000}},{"type":"Feature","geometry":{"type":"Point","coordinates":[125.752745,39.021385]},"properties":{"name":"Pyongyang","iso_a3":"PRK","pop_max":3300000}},{"type":"Feature","geometry":{"type":"Point","coordinates":[39.266396,-6.798067]},"properties":{"name":"Dar es Salaam","iso_a3":"TZA","pop_max":2930000}},{"type":"Feature","geometry":{"type":"Point","coordinates":[-6.25698,53.346731]},"properties":{"name":"Dublin","iso_a3":"IRL","pop_max":1059000}},{"type":"Feature","geometry":{"type":"Point","coordinates":[-10.79966,6.314582]},"properties":{"name":"Monrovia","iso_a3":"LBR","pop_max":1041000}},{"type":"Feature","geometry":{"type":"Point","coordinates":[101.688699,3.139797]},"properties":{"name":"Kuala Lumpur","iso_a3":"MYS","pop_max":1448000}},{"type":"Feature","geometry":{"type":"Point","coordinates":[-82.366128,23.133905]},"properties":{"name":"Havana","iso_a3":"CUB","pop_max":2174000}},{"type":"Feature","geometry":{"type":"Point","coordinates":[14.422939,50.086967]},"properties":{"name":"Prague","iso_a3":"CZE","pop_max":1162000}},{"type":"Feature","geometry":{"type":"Point","coordinates":[47.976355,29.371664]},"properties":{"name":"Kuwait City","iso_a3":"KWT","pop_max":2063000}},{"type":"Feature","geometry":{"type":"Point","coordinates":[-69.929742,18.470745]},"properties":{"name":"Santo Domingo","iso_a3":"DOM","pop_max":2154000}},{"type":"Feature","geometry":{"type":"Point","coordinates":[-0.218662,5.55198]},"properties":{"name":"Accra","iso_a3":"GHA","pop_max":2121000}},{"type":"Feature","geometry":{"type":"Point","coordinates":[13.180012,32.8925]},"properties":{"name":"Tripoli","iso_a3":"LBY","pop_max":2189000}},{"type":"Feature","geometry":{"type":"Point","coordinates":[34.768066,32.081937]},"properties":{"name":"Tel Aviv","iso_a3":"ISR","pop_max":3112000}},{"type":"Feature","geometry":{"type":"Point","coordinates":[24.932457,60.163804]},"properties":{"name":"Helsinki","iso_a3":"FIN","pop_max":1115000}},{"type":"Feature","geometry":{"type":"Point","coordinates":[12.56154,55.68051]},"properties":{"name":"København","iso_a3":"DNK","pop_max":1085000}},{"type":"Feature","geometry":{"type":"Point","coordinates":[-4.020207,5.323126]},"properties":{"name":"Abidjan","iso_a3":"CIV","pop_max":3802000}},{"type":"Feature","geometry":{"type":"Point","coordinates":[-47.917998,-15.781394]},"properties":{"name":"Brasília","iso_a3":"BRA","pop_max":3716996}},{"type":"Feature","geometry":{"type":"Point","coordinates":[4.331371,50.835263]},"properties":{"name":"Brussels","iso_a3":"BEL","pop_max":1743000}},{"type":"Feature","geometry":{"type":"Point","coordinates":[90.406634,23.725006]},"properties":{"name":"Dhaka","iso_a3":"BGD","pop_max":12797394}},{"type":"Feature","geometry":{"type":"Point","coordinates":[13.232481,-8.83634]},"properties":{"name":"Luanda","iso_a3":"AGO","pop_max":5172900}},{"type":"Feature","geometry":{"type":"Point","coordinates":[3.048607,36.765011]},"properties":{"name":"Algiers","iso_a3":"DZA","pop_max":3354000}},{"type":"Feature","geometry":{"type":"Point","coordinates":[96.164732,16.7853]},"properties":{"name":"Yangon","iso_a3":"MMR","pop_max":4088000}},{"type":"Feature","geometry":{"type":"Point","coordinates":[-122.3996,37.784263]},"properties":{"name":"San Francisco","iso_a3":"USA","pop_max":3450000}},{"type":"Feature","geometry":{"type":"Point","coordinates":[-104.985962,39.741134]},"properties":{"name":"Denver","iso_a3":"USA","pop_max":2313000}},{"type":"Feature","geometry":{"type":"Point","coordinates":[-95.348436,29.741273]},"properties":{"name":"Houston","iso_a3":"USA","pop_max":4459000}},{"type":"Feature","geometry":{"type":"Point","coordinates":[-80.226052,25.789557]},"properties":{"name":"Miami","iso_a3":"USA","pop_max":5585000}},{"type":"Feature","geometry":{"type":"Point","coordinates":[-84.367642,33.739457]},"properties":{"name":"Atlanta","iso_a3":"USA","pop_max":4506000}},{"type":"Feature","geometry":{"type":"Point","coordinates":[-87.635237,41.847961]},"properties":{"name":"Chicago","iso_a3":"USA","pop_max":8990000}},{"type":"Feature","geometry":{"type":"Point","coordinates":[-66.918983,10.502944]},"properties":{"name":"Caracas","iso_a3":"VEN","pop_max":2985000}},{"type":"Feature","geometry":{"type":"Point","coordinates":[30.514682,50.435313]},"properties":{"name":"Kyiv","iso_a3":"UKR","pop_max":2709000}},{"type":"Feature","geometry":{"type":"Point","coordinates":[55.286946,25.214912]},"properties":{"name":"Dubai","iso_a3":"ARE","pop_max":1379000}},{"type":"Feature","geometry":{"type":"Point","coordinates":[69.268823,41.303828]},"properties":{"name":"Tashkent","iso_a3":"UZB","pop_max":2184000}},{"type":"Feature","geometry":{"type":"Point","coordinates":[-3.685297,40.401972]},"properties":{"name":"Madrid","iso_a3":"ESP","pop_max":5567000}},{"type":"Feature","geometry":{"type":"Point","coordinates":[6.140028,46.210008]},"properties":{"name":"Geneva","iso_a3":"CHE","pop_max":1240000}},{"type":"Feature","geometry":{"type":"Point","coordinates":[18.0663,59.324127]},"properties":{"name":"Stockholm","iso_a3":"SWE","pop_max":1264000}},{"type":"Feature","geometry":{"type":"Point","coordinates":[100.514699,13.751945]},"properties":{"name":"Bangkok","iso_a3":"THA","pop_max":6704000}},{"type":"Feature","geometry":{"type":"Point","coordinates":[-77.052008,-12.046067]},"properties":{"name":"Lima","iso_a3":"PER","pop_max":8012000}},{"type":"Feature","geometry":{"type":"Point","coordinates":[-17.475076,14.717778]},"properties":{"name":"Dakar","iso_a3":"SEN","pop_max":2604000}},{"type":"Feature","geometry":{"type":"Point","coordinates":[28.028064,-26.168099]},"properties":{"name":"Johannesburg","iso_a3":"ZAF","pop_max":3435000}},{"type":"Feature","geometry":{"type":"Point","coordinates":[4.914694,52.351914]},"properties":{"name":"Amsterdam","iso_a3":"NLD","pop_max":1031000}},{"type":"Feature","geometry":{"type":"Point","coordinates":[-7.618313,33.601922]},"properties":{"name":"Casablanca","iso_a3":"MAR","pop_max":3181000}},{"type":"Feature","geometry":{"type":"Point","coordinates":[126.997785,37.568295]},"properties":{"name":"Seoul","iso_a3":"KOR","pop_max":9796000}},{"type":"Feature","geometry":{"type":"Point","coordinates":[120.980271,14.606105]},"properties":{"name":"Manila","iso_a3":"PHL","pop_max":11100000}},{"type":"Feature","geometry":{"type":"Point","coordinates":[-100.331931,25.671941]},"properties":{"name":"Monterrey","iso_a3":"MEX","pop_max":3712000}},{"type":"Feature","geometry":{"type":"Point","coordinates":[13.399603,52.523764]},"properties":{"name":"Berlin","iso_a3":"DEU","pop_max":3406000}},{"type":"Feature","geometry":{"type":"Point","coordinates":[87.57306,43.806958]},"properties":{"name":"Ürümqi","iso_a3":"CHN","pop_max":3575000}},{"type":"Feature","geometry":{"type":"Point","coordinates":[104.068074,30.671946]},"properties":{"name":"Chengdu","iso_a3":"CHN","pop_max":4123000}},{"type":"Feature","geometry":{"type":"Point","coordinates":[135.503754,34.691095]},"properties":{"name":"Ōsaka","iso_a3":"JPN","pop_max":11294000}},{"type":"Feature","geometry":{"type":"Point","coordinates":[15.313026,-4.327778]},"properties":{"name":"Kinshasa","iso_a3":"COD","pop_max":7843000}},{"type":"Feature","geometry":{"type":"Point","coordinates":[77.19998,28.600023]},"properties":{"name":"New Delhi","iso_a3":"IND","pop_max":317797}},{"type":"Feature","geometry":{"type":"Point","coordinates":[77.558064,12.971941]},"properties":{"name":"Bengaluru","iso_a3":"IND","pop_max":6787000}},{"type":"Feature","geometry":{"type":"Point","coordinates":[23.731375,37.985272]},"properties":{"name":"Athens","iso_a3":"GRC","pop_max":3242000}},{"type":"Feature","geometry":{"type":"Point","coordinates":[44.391923,33.340594]},"properties":{"name":"Baghdad","iso_a3":"IRQ","pop_max":5054000}},{"type":"Feature","geometry":{"type":"Point","coordinates":[38.698059,9.035256]},"properties":{"name":"Addis Ababa","iso_a3":"ETH","pop_max":3100000}},{"type":"Feature","geometry":{"type":"Point","coordinates":[51.422398,35.673889]},"properties":{"name":"Tehran","iso_a3":"IRN","pop_max":7873000}},{"type":"Feature","geometry":{"type":"Point","coordinates":[-123.12359,49.275362]},"properties":{"name":"Vancouver","iso_a3":"CAN","pop_max":2313328}},{"type":"Feature","geometry":{"type":"Point","coordinates":[-79.389459,43.664645]},"properties":{"name":"Toronto","iso_a3":"CAN","pop_max":5213000}},{"type":"Feature","geometry":{"type":"Point","coordinates":[-58.432513,-34.610715]},"properties":{"name":"Buenos Aires","iso_a3":"ARG","pop_max":12795000}},{"type":"Feature","geometry":{"type":"Point","coordinates":[69.181314,34.518636]},"properties":{"name":"Kabul","iso_a3":"AFG","pop_max":3277000}},{"type":"Feature","geometry":{"type":"Point","coordinates":[16.364693,48.201961]},"properties":{"name":"Vienna","iso_a3":"AUT","pop_max":2400000}},{"type":"Feature","geometry":{"type":"Point","coordinates":[144.97307,-37.818086]},"properties":{"name":"Melbourne","iso_a3":"AUS","pop_max":4170000}},{"type":"Feature","geometry":{"type":"Point","coordinates":[121.568333,25.035833]},"properties":{"name":"Taipei","iso_a3":"TWN","pop_max":6900273}},{"type":"Feature","geometry":{"type":"Point","coordinates":[174.763027,-36.848055]},"properties":{"name":"Auckland","iso_a3":"NZL","pop_max":1377200}},{"type":"Feature","geometry":{"type":"Point","coordinates":[-118.231986,34.049219]},"properties":{"name":"Los Angeles","iso_a3":"USA","pop_max":12500000}},{"type":"Feature","geometry":{"type":"Point","coordinates":[-77.011364,38.901495]},"properties":{"name":"Washington,  D.C.","iso_a3":"USA","pop_max":4338000}},{"type":"Feature","geometry":{"type":"Point","coordinates":[-73.995718,40.721562]},"properties":{"name":"New York","iso_a3":"USA","pop_max":19040000}},{"type":"Feature","geometry":{"type":"Point","coordinates":[-0.118668,51.501941]},"properties":{"name":"London","iso_a3":"GBR","pop_max":8567000}},{"type":"Feature","geometry":{"type":"Point","coordinates":[28.974277,41.017602]},"properties":{"name":"Istanbul","iso_a3":"TUR","pop_max":10061000}},{"type":"Feature","geometry":{"type":"Point","coordinates":[46.720487,24.634497]},"properties":{"name":"Riyadh","iso_a3":"SAU","pop_max":4465000}},{"type":"Feature","geometry":{"type":"Point","coordinates":[18.433042,-33.918065]},"properties":{"name":"Cape Town","iso_a3":"ZAF","pop_max":3215000}},{"type":"Feature","geometry":{"type":"Point","coordinates":[37.613577,55.75411]},"properties":{"name":"Moscow","iso_a3":"RUS","pop_max":10452000}},{"type":"Feature","geometry":{"type":"Point","coordinates":[-99.132934,19.444388]},"properties":{"name":"Mexico City","iso_a3":"MEX","pop_max":19028000}},{"type":"Feature","geometry":{"type":"Point","coordinates":[3.389585,6.445208]},"properties":{"name":"Lagos","iso_a3":"NGA","pop_max":9466000}},{"type":"Feature","geometry":{"type":"Point","coordinates":[12.481313,41.897902]},"properties":{"name":"Rome","iso_a3":"ITA","pop_max":3339000}},{"type":"Feature","geometry":{"type":"Point","coordinates":[116.394201,39.90172]},"properties":{"name":"Beijing","iso_a3":"CHN","pop_max":11106000}},{"type":"Feature","geometry":{"type":"Point","coordinates":[36.814711,-1.281401]},"properties":{"name":"Nairobi","iso_a3":"KEN","pop_max":3010000}},{"type":"Feature","geometry":{"type":"Point","coordinates":[106.827492,-6.172472]},"properties":{"name":"Jakarta","iso_a3":"IDN","pop_max":9125000}},{"type":"Feature","geometry":{"type":"Point","coordinates":[-74.08529,4.598369]},"properties":{"name":"Bogota","iso_a3":"COL","pop_max":7772000}},{"type":"Feature","geometry":{"type":"Point","coordinates":[31.248022,30.051906]},"properties":{"name":"Cairo","iso_a3":"EGY","pop_max":11893000}},{"type":"Feature","geometry":{"type":"Point","coordinates":[121.434559,31.218398]},"properties":{"name":"Shanghai","iso_a3":"CHN","pop_max":14987000}},{"type":"Feature","geometry":{"type":"Point","coordinates":[139.749462,35.686963]},"properties":{"name":"Tokyo","iso_a3":"JPN","pop_max":35676000}},{"type":"Feature","geometry":{"type":"Point","coordinates":[72.875839,19.068408]},"properties":{"name":"Mumbai","iso_a3":"IND","pop_max":18978000}},{"type":"Feature","geometry":{"type":"Point","coordinates":[2.352992,48.858092]},"properties":{"name":"Paris","iso_a3":"FRA","pop_max":9904000}},{"type":"Feature","geometry":{"type":"Point","coordinates":[-70.650504,-33.440205]},"properties":{"name":"Santiago","iso_a3":"CHL","pop_max":5720000}},{"type":"Feature","geometry":{"type":"Point","coordinates":[88.369126,22.569579]},"properties":{"name":"Kolkata","iso_a3":"IND","pop_max":14787000}},{"type":"Feature","geometry":{"type":"Point","coordinates":[-43.212117,-22.907308]},"properties":{"name":"Rio de Janeiro","iso_a3":"BRA","pop_max":11748000}},{"type":"Feature","geometry":{"type":"Point","coordinates":[-46.626966,-23.556734]},"properties":{"name":"São Paulo","iso_a3":"BRA","pop_max":18845000}},{"type":"Feature","geometry":{"type":"Point","coordinates":[151.212548,-33.871373]},"properties":{"name":"Sydney","iso_a3":"AUS","pop_max":4630000}},{"type":"Feature","geometry":{"type":"Point","coordinates":[103.853875,1.294979]},"properties":{"name":"Singapore","iso_a3":"SGP","pop_max":5183700}},{"type":"Feature","geometry":{"type":"Point","coordinates":[114.183064,22.306927]},"properties":{"name":"Hong Kong","iso_a3":"HKG","pop_max":7206000}}]}